[{"OBJECT_NAME":"SL-8 R/B","OBJECT_ID":"1988-053B","EPOCH":"2026-03-11T07:54:54.477216","MEAN_MOTION":14.38916797,"ECCENTRICITY":0.00214466,"INCLINATION":74.0458,"RA_OF_ASC_NODE":109.443,"ARG_OF_PERICENTER":288.4865,"MEAN_ANOMALY":156.9852,"EPHEMERIS_TYPE":0,"CLASSIFICATION_TYPE":"U","NORAD_CAT_ID":19257,"ELEMENT_SET_NO":999,"REV_AT_EPOCH":97683,"BSTAR":9.6979541e-5,"MEAN_MOTION_DOT":2.73e-6,"MEAN_MOTION_DDOT":0},{"OBJECT_NAME":"COSMOS 1975","OBJECT_ID":"1988-093A","EPOCH":"2026-03-11T03:58:15.336192","MEAN_MOTION":15.28093792,"ECCENTRICITY":0.00122775,"INCLINATION":82.5181,"RA_OF_ASC_NODE":116.2036,"ARG_OF_PERICENTER":158.4381,"MEAN_ANOMALY":201.7378,"EPHEMERIS_TYPE":0,"CLASSIFICATION_TYPE":"U","NORAD_CAT_ID":19573,"ELEMENT_SET_NO":999,"REV_AT_EPOCH":1963,"BSTAR":0.00025598009,"MEAN_MOTION_DOT":7.058e-5,"MEAN_MOTION_DDOT":0},{"OBJECT_NAME":"SL-14 R/B","OBJECT_ID":"1988-093B","EPOCH":"2026-03-11T06:59:08.497248","MEAN_MOTION":14.85658793,"ECCENTRICITY":0.00216463,"INCLINATION":82.5308,"RA_OF_ASC_NODE":40.5402,"ARG_OF_PERICENTER":36.4305,"MEAN_ANOMALY":90.8277,"EPHEMERIS_TYPE":0,"CLASSIFICATION_TYPE":"U","NORAD_CAT_ID":19574,"ELEMENT_SET_NO":999,"REV_AT_EPOCH":125,"BSTAR":8.1342494e-5,"MEAN_MOTION_DOT":7.32e-6,"MEAN_MOTION_DDOT":0},{"OBJECT_NAME":"SL-16 R/B","OBJECT_ID":"1988-102B","EPOCH":"2026-03-11T07:37:23.066112","MEAN_MOTION":14.16153142,"ECCENTRICITY":0.0014076,"INCLINATION":71,"RA_OF_ASC_NODE":148.0725,"ARG_OF_PERICENTER":359.0878,"MEAN_ANOMALY":1.0217,"EPHEMERIS_TYPE":0,"CLASSIFICATION_TYPE":"U","NORAD_CAT_ID":19650,"ELEMENT_SET_NO":999,"REV_AT_EPOCH":92712,"BSTAR":0.00017401302,"MEAN_MOTION_DOT":2.97e-6,"MEAN_MOTION_DDOT":0},{"OBJECT_NAME":"INTERCOSMOS 24","OBJECT_ID":"1989-080A","EPOCH":"2026-03-11T03:40:05.541024","MEAN_MOTION":12.59560258,"ECCENTRICITY":0.11866808,"INCLINATION":82.6024,"RA_OF_ASC_NODE":103.4514,"ARG_OF_PERICENTER":289.4208,"MEAN_ANOMALY":58.2533,"EPHEMERIS_TYPE":0,"CLASSIFICATION_TYPE":"U","NORAD_CAT_ID":20261,"ELEMENT_SET_NO":999,"REV_AT_EPOCH":66698,"BSTAR":0.00024465585,"MEAN_MOTION_DOT":8.21e-6,"MEAN_MOTION_DDOT":0},{"OBJECT_NAME":"SL-14 R/B","OBJECT_ID":"1989-080C","EPOCH":"2026-03-11T07:35:25.562976","MEAN_MOTION":12.50496014,"ECCENTRICITY":0.1230626,"INCLINATION":82.5975,"RA_OF_ASC_NODE":172.1424,"ARG_OF_PERICENTER":181.0327,"MEAN_ANOMALY":178.8197,"EPHEMERIS_TYPE":0,"CLASSIFICATION_TYPE":"U","NORAD_CAT_ID":20262,"ELEMENT_SET_NO":999,"REV_AT_EPOCH":66035,"BSTAR":0.00019407198,"MEAN_MOTION_DOT":6.61e-6,"MEAN_MOTION_DDOT":0},{"OBJECT_NAME":"DELTA 1 R/B","OBJECT_ID":"1989-089B","EPOCH":"2026-03-11T06:37:48.909792","MEAN_MOTION":14.50664328,"ECCENTRICITY":0.00705424,"INCLINATION":97.0705,"RA_OF_ASC_NODE":277.4627,"ARG_OF_PERICENTER":117.0494,"MEAN_ANOMALY":243.7926,"EPHEMERIS_TYPE":0,"CLASSIFICATION_TYPE":"U","NORAD_CAT_ID":20323,"ELEMENT_SET_NO":999,"REV_AT_EPOCH":89596,"BSTAR":0.00010424091,"MEAN_MOTION_DOT":3.88e-6,"MEAN_MOTION_DDOT":0},{"OBJECT_NAME":"ARIANE 40 R/B","OBJECT_ID":"1990-005H","EPOCH":"2026-03-11T03:12:45.630144","MEAN_MOTION":14.39871501,"ECCENTRICITY":0.00099491,"INCLINATION":98.308,"RA_OF_ASC_NODE":130.7523,"ARG_OF_PERICENTER":194.2151,"MEAN_ANOMALY":165.876,"EPHEMERIS_TYPE":0,"CLASSIFICATION_TYPE":"U","NORAD_CAT_ID":20443,"ELEMENT_SET_NO":999,"REV_AT_EPOCH":89301,"BSTAR":0.00011030502,"MEAN_MOTION_DOT":3.04e-6,"MEAN_MOTION_DDOT":0},{"OBJECT_NAME":"DELTA 2 R/B(1)","OBJECT_ID":"1990-008B","EPOCH":"2026-03-11T07:11:01.256640","MEAN_MOTION":15.56213961,"ECCENTRICITY":0.00849323,"INCLINATION":35.6037,"RA_OF_ASC_NODE":164.2881,"ARG_OF_PERICENTER":273.5891,"MEAN_ANOMALY":85.5135,"EPHEMERIS_TYPE":0,"CLASSIFICATION_TYPE":"U","NORAD_CAT_ID":20453,"ELEMENT_SET_NO":999,"REV_AT_EPOCH":92638,"BSTAR":0.00074552103,"MEAN_MOTION_DOT":0.0006423,"MEAN_MOTION_DDOT":0},{"OBJECT_NAME":"COSMOS 2058","OBJECT_ID":"1990-010A","EPOCH":"2026-03-11T07:16:50.297952","MEAN_MOTION":15.11338561,"ECCENTRICITY":0.00091059,"INCLINATION":82.4671,"RA_OF_ASC_NODE":45.8379,"ARG_OF_PERICENTER":339.2028,"MEAN_ANOMALY":20.883,"EPHEMERIS_TYPE":0,"CLASSIFICATION_TYPE":"U","NORAD_CAT_ID":20465,"ELEMENT_SET_NO":999,"REV_AT_EPOCH":94248,"BSTAR":0.00029014593,"MEAN_MOTION_DOT":4.922e-5,"MEAN_MOTION_DDOT":0},{"OBJECT_NAME":"SL-14 R/B","OBJECT_ID":"1990-010B","EPOCH":"2026-03-11T00:51:35.604864","MEAN_MOTION":14.83569997,"ECCENTRICITY":0.00184728,"INCLINATION":82.4987,"RA_OF_ASC_NODE":266.1239,"ARG_OF_PERICENTER":297.5723,"MEAN_ANOMALY":62.3615,"EPHEMERIS_TYPE":0,"CLASSIFICATION_TYPE":"U","NORAD_CAT_ID":20466,"ELEMENT_SET_NO":999,"REV_AT_EPOCH":92868,"BSTAR":5.5980246e-5,"MEAN_MOTION_DOT":4.86e-6,"MEAN_MOTION_DDOT":0},{"OBJECT_NAME":"SL-14 R/B","OBJECT_ID":"1990-018B","EPOCH":"2026-03-10T22:04:43.315392","MEAN_MOTION":14.82146372,"ECCENTRICITY":0.0017666,"INCLINATION":82.5205,"RA_OF_ASC_NODE":221.9395,"ARG_OF_PERICENTER":88.3207,"MEAN_ANOMALY":272.0031,"EPHEMERIS_TYPE":0,"CLASSIFICATION_TYPE":"U","NORAD_CAT_ID":20511,"ELEMENT_SET_NO":999,"REV_AT_EPOCH":92276,"BSTAR":7.6456e-5,"MEAN_MOTION_DOT":6.34e-6,"MEAN_MOTION_DDOT":0},{"OBJECT_NAME":"HST","OBJECT_ID":"1990-037B","EPOCH":"2026-03-11T05:56:45.946464","MEAN_MOTION":15.29511346,"ECCENTRICITY":0.00018411,"INCLINATION":28.4722,"RA_OF_ASC_NODE":29.37,"ARG_OF_PERICENTER":140.8013,"MEAN_ANOMALY":219.2716,"EPHEMERIS_TYPE":0,"CLASSIFICATION_TYPE":"U","NORAD_CAT_ID":20580,"ELEMENT_SET_NO":999,"REV_AT_EPOCH":77355,"BSTAR":0.00029286201,"MEAN_MOTION_DOT":8.856e-5,"MEAN_MOTION_DDOT":0},{"OBJECT_NAME":"SL-16 R/B","OBJECT_ID":"1990-046B","EPOCH":"2026-03-11T00:58:04.901664","MEAN_MOTION":14.15011893,"ECCENTRICITY":0.00162568,"INCLINATION":70.9986,"RA_OF_ASC_NODE":295.0781,"ARG_OF_PERICENTER":297.7656,"MEAN_ANOMALY":62.1818,"EPHEMERIS_TYPE":0,"CLASSIFICATION_TYPE":"U","NORAD_CAT_ID":20625,"ELEMENT_SET_NO":999,"REV_AT_EPOCH":84858,"BSTAR":-8.6525607e-5,"MEAN_MOTION_DOT":-2.16e-6,"MEAN_MOTION_DDOT":0},{"OBJECT_NAME":"COSMOS 2084","OBJECT_ID":"1990-055A","EPOCH":"2026-03-11T01:12:21.216384","MEAN_MOTION":15.0566115,"ECCENTRICITY":0.0016887,"INCLINATION":62.7921,"RA_OF_ASC_NODE":330.9381,"ARG_OF_PERICENTER":190.4078,"MEAN_ANOMALY":169.6676,"EPHEMERIS_TYPE":0,"CLASSIFICATION_TYPE":"U","NORAD_CAT_ID":20663,"ELEMENT_SET_NO":999,"REV_AT_EPOCH":93652,"BSTAR":0.00021533549,"MEAN_MOTION_DOT":2.932e-5,"MEAN_MOTION_DDOT":0},{"OBJECT_NAME":"SL-6 R/B(2)","OBJECT_ID":"1990-055D","EPOCH":"2026-03-10T21:38:30.124320","MEAN_MOTION":15.03601272,"ECCENTRICITY":0.0024978,"INCLINATION":62.7825,"RA_OF_ASC_NODE":249.7283,"ARG_OF_PERICENTER":347.3471,"MEAN_ANOMALY":12.6998,"EPHEMERIS_TYPE":0,"CLASSIFICATION_TYPE":"U","NORAD_CAT_ID":20666,"ELEMENT_SET_NO":999,"REV_AT_EPOCH":93837,"BSTAR":0.00019859,"MEAN_MOTION_DOT":2.544e-5,"MEAN_MOTION_DDOT":0},{"OBJECT_NAME":"SL-8 R/B","OBJECT_ID":"1990-078B","EPOCH":"2026-03-11T04:31:08.668128","MEAN_MOTION":14.89118134,"ECCENTRICITY":0.03618758,"INCLINATION":82.9009,"RA_OF_ASC_NODE":249.9629,"ARG_OF_PERICENTER":8.9629,"MEAN_ANOMALY":351.7816,"EPHEMERIS_TYPE":0,"CLASSIFICATION_TYPE":"U","NORAD_CAT_ID":20775,"ELEMENT_SET_NO":999,"REV_AT_EPOCH":80952,"BSTAR":0.0005116789,"MEAN_MOTION_DOT":0.00017367,"MEAN_MOTION_DDOT":0}]
