SL-8 R/B                
1 19257U 88053B   26070.32979719  .00000273  00000+0  96980-4 0  9997
2 19257  74.0458 109.4430 0021446 288.4865 156.9852 14.38916797976837
COSMOS 1975             
1 19573U 88093A   26070.16545528  .00007058  00000+0  25598-3 0  9995
2 19573  82.5181 116.2036 0012277 158.4381 201.7378 15.28093792 19633
SL-14 R/B               
1 19574U 88093B   26070.29107057  .00000732  00000+0  81342-4 0  9993
2 19574  82.5308  40.5402 0021646  36.4305  90.8277 14.85658793  1256
SL-16 R/B               
1 19650U 88102B   26070.31762808  .00000297  00000+0  17401-3 0  9993
2 19650  71.0000 148.0725 0014076 359.0878   1.0217 14.16153142927126
INTERCOSMOS 24          
1 20261U 89080A   26070.15284191  .00000821  00000+0  24466-3 0  9997
2 20261  82.6024 103.4514 1186680 289.4208  58.2533 12.59560258666980
SL-14 R/B               
1 20262U 89080C   26070.31626809  .00000661  00000+0  19407-3 0  9993
2 20262  82.5975 172.1424 1230626 181.0327 178.8197 12.50496014660356
DELTA 1 R/B             
1 20323U 89089B   26070.27626053  .00000388  00000+0  10424-3 0  9992
2 20323  97.0705 277.4627 0070542 117.0494 243.7926 14.50664328895968
ARIANE 40 R/B           
1 20443U 90005H   26070.13386146  .00000304  00000+0  11031-3 0  9999
2 20443  98.3080 130.7523 0009949 194.2151 165.8760 14.39871501893011
DELTA 2 R/B(1)          
1 20453U 90008B   26070.29932010  .00064230  00000+0  74552-3 0  9992
2 20453  35.6037 164.2881 0084932 273.5891  85.5135 15.56213961926385
COSMOS 2058             
1 20465U 90010A   26070.30335993  .00004922  00000+0  29015-3 0  9993
2 20465  82.4671  45.8379 0009105 339.2028  20.8830 15.11338561942487
SL-14 R/B               
1 20466U 90010B   26070.03582876  .00000486  00000+0  55980-4 0  9990
2 20466  82.4987 266.1239 0018472 297.5723  62.3615 14.83569997928681
SL-14 R/B               
1 20511U 90018B   26069.91994578  .00000634  00000+0  76456-4 0  9996
2 20511  82.5205 221.9395 0017666  88.3207 272.0031 14.82146372922767
HST                     
1 20580U 90037B   26070.24775401  .00008856  00000+0  29286-3 0  9995
2 20580  28.4722  29.3700 0001841 140.8013 219.2716 15.29511346773556
SL-16 R/B               
1 20625U 90046B   26070.04033451 -.00000216  00000+0 -86526-4 0  9990
2 20625  70.9986 295.0781 0016256 297.7656  62.1818 14.15011893848582
COSMOS 2084             
1 20663U 90055A   26070.05024556  .00002932  00000+0  21534-3 0  9991
2 20663  62.7921 330.9381 0016887 190.4078 169.6676 15.05661150936528
SL-6 R/B(2)             
1 20666U 90055D   26069.90173755  .00002544  00000+0  19859-3 0  9998
2 20666  62.7825 249.7283 0024978 347.3471  12.6998 15.03601272938378
SL-8 R/B                
1 20775U 90078B   26070.18829477  .00017367  00000+0  51168-3 0  9993
2 20775  82.9009 249.9629 0361875   8.9629 351.7816 14.89118134809521
